CCSDS_OMM_VERS = 2.0
CREATION_DATE  = 
ORIGINATOR     = 

OBJECT_NAME    = ALOS-2
OBJECT_ID      = 2014-029A
CENTER_NAME    = EARTH
REF_FRAME      = TEME
TIME_SYSTEM    = UTC
MEAN_ELEMENT_THEORY = SGP/SGP4

EPOCH          = 2026-03-26T13:25:19.502400
MEAN_MOTION    = 14.79437804
ECCENTRICITY   = .0001898
INCLINATION    = 97.9185
RA_OF_ASC_NODE = 183.9107
ARG_OF_PERICENTER = 104.8768
MEAN_ANOMALY   = 255.2654

EPHEMERIS_TYPE = 0
CLASSIFICATION_TYPE = U
NORAD_CAT_ID   = 39766
ELEMENT_SET_NO = 999
REV_AT_EPOCH   = 63936
BSTAR          = .25745E-3
MEAN_MOTION_DOT = .187E-4
MEAN_MOTION_DDOT = 0

CCSDS_OMM_VERS = 2.0
CREATION_DATE  = 
ORIGINATOR     = 

OBJECT_NAME    = YAOGAN-29
OBJECT_ID      = 2015-069A
CENTER_NAME    = EARTH
REF_FRAME      = TEME
TIME_SYSTEM    = UTC
MEAN_ELEMENT_THEORY = SGP/SGP4

EPOCH          = 2026-03-26T12:39:33.020064
MEAN_MOTION    = 14.83014414
ECCENTRICITY   = .0000707
INCLINATION    = 98.0124
RA_OF_ASC_NODE = 114.0006
ARG_OF_PERICENTER = 10.6510
MEAN_ANOMALY   = 349.4718

EPHEMERIS_TYPE = 0
CLASSIFICATION_TYPE = U
NORAD_CAT_ID   = 41038
ELEMENT_SET_NO = 999
REV_AT_EPOCH   = 55837
BSTAR          = .72902E-4
MEAN_MOTION_DOT = .538E-5
MEAN_MOTION_DDOT = 0

CCSDS_OMM_VERS = 2.0
CREATION_DATE  = 
ORIGINATOR     = 

OBJECT_NAME    = ASTRO-H (HITOMI)
OBJECT_ID      = 2016-012A
CENTER_NAME    = EARTH
REF_FRAME      = TEME
TIME_SYSTEM    = UTC
MEAN_ELEMENT_THEORY = SGP/SGP4

EPOCH          = 2026-03-26T11:45:08.797824
MEAN_MOTION    = 15.10106763
ECCENTRICITY   = .0009607
INCLINATION    = 30.9987
RA_OF_ASC_NODE = 248.1244
ARG_OF_PERICENTER = 140.6627
MEAN_ANOMALY   = 219.4710

EPHEMERIS_TYPE = 0
CLASSIFICATION_TYPE = U
NORAD_CAT_ID   = 41337
ELEMENT_SET_NO = 999
REV_AT_EPOCH   = 55477
BSTAR          = .16959E-3
MEAN_MOTION_DOT = .2929E-4
MEAN_MOTION_DDOT = 0

CCSDS_OMM_VERS = 2.0
CREATION_DATE  = 
ORIGINATOR     = 

OBJECT_NAME    = HXMT (HUIYAN)
OBJECT_ID      = 2017-034A
CENTER_NAME    = EARTH
REF_FRAME      = TEME
TIME_SYSTEM    = UTC
MEAN_ELEMENT_THEORY = SGP/SGP4

EPOCH          = 2026-03-26T13:28:11.236224
MEAN_MOTION    = 15.17673721
ECCENTRICITY   = .0032196
INCLINATION    = 43.0144
RA_OF_ASC_NODE = 282.8595
ARG_OF_PERICENTER = 338.9624
MEAN_ANOMALY   = 20.9899

EPHEMERIS_TYPE = 0
CLASSIFICATION_TYPE = U
NORAD_CAT_ID   = 42758
ELEMENT_SET_NO = 999
REV_AT_EPOCH   = 48510
BSTAR          = .25417E-3
MEAN_MOTION_DOT = .5041E-4
MEAN_MOTION_DDOT = 0

CCSDS_OMM_VERS = 2.0
CREATION_DATE  = 
ORIGINATOR     = 

OBJECT_NAME    = SAOCOM 1A
OBJECT_ID      = 2018-076A
CENTER_NAME    = EARTH
REF_FRAME      = TEME
TIME_SYSTEM    = UTC
MEAN_ELEMENT_THEORY = SGP/SGP4

EPOCH          = 2026-03-26T12:04:30.643680
MEAN_MOTION    = 14.82158326
ECCENTRICITY   = .0001496
INCLINATION    = 97.8907
RA_OF_ASC_NODE = 273.4382
ARG_OF_PERICENTER = 85.9815
MEAN_ANOMALY   = 274.1570

EPHEMERIS_TYPE = 0
CLASSIFICATION_TYPE = U
NORAD_CAT_ID   = 43641
ELEMENT_SET_NO = 999
REV_AT_EPOCH   = 40385
BSTAR          = .39507E-4
MEAN_MOTION_DOT = .262E-5
MEAN_MOTION_DDOT = 0

CCSDS_OMM_VERS = 2.0
CREATION_DATE  = 
ORIGINATOR     = 

OBJECT_NAME    = H-2A R/B
OBJECT_ID      = 2018-084L
CENTER_NAME    = EARTH
REF_FRAME      = TEME
TIME_SYSTEM    = UTC
MEAN_ELEMENT_THEORY = SGP/SGP4

EPOCH          = 2026-03-26T13:01:47.196768
MEAN_MOTION    = 15.42046506
ECCENTRICITY   = .0023967
INCLINATION    = 98.8711
RA_OF_ASC_NODE = 306.5404
ARG_OF_PERICENTER = 326.7333
MEAN_ANOMALY   = 33.2402

EPHEMERIS_TYPE = 0
CLASSIFICATION_TYPE = U
NORAD_CAT_ID   = 43682
ELEMENT_SET_NO = 999
REV_AT_EPOCH   = 40837
BSTAR          = .44617E-3
MEAN_MOTION_DOT = .19154E-3
MEAN_MOTION_DDOT = 0

CCSDS_OMM_VERS = 2.0
CREATION_DATE  = 
ORIGINATOR     = 

OBJECT_NAME    = SAOCOM 1B
OBJECT_ID      = 2020-059A
CENTER_NAME    = EARTH
REF_FRAME      = TEME
TIME_SYSTEM    = UTC
MEAN_ELEMENT_THEORY = SGP/SGP4

EPOCH          = 2026-03-26T12:49:29.138592
MEAN_MOTION    = 14.82152715
ECCENTRICITY   = .0001463
INCLINATION    = 97.8906
RA_OF_ASC_NODE = 272.5667
ARG_OF_PERICENTER = 88.6494
MEAN_ANOMALY   = 271.4886

EPHEMERIS_TYPE = 0
CLASSIFICATION_TYPE = U
NORAD_CAT_ID   = 46265
ELEMENT_SET_NO = 999
REV_AT_EPOCH   = 30124
BSTAR          = .48304E-4
MEAN_MOTION_DOT = .332E-5
MEAN_MOTION_DDOT = 0

CCSDS_OMM_VERS = 2.0
CREATION_DATE  = 
ORIGINATOR     = 

OBJECT_NAME    = CSS (TIANHE)
OBJECT_ID      = 2021-035A
CENTER_NAME    = EARTH
REF_FRAME      = TEME
TIME_SYSTEM    = UTC
MEAN_ELEMENT_THEORY = SGP/SGP4

EPOCH          = 2026-03-26T11:26:24.884160
MEAN_MOTION    = 15.61516360
ECCENTRICITY   = .0004375
INCLINATION    = 41.4668
RA_OF_ASC_NODE = 105.9518
ARG_OF_PERICENTER = 27.8564
MEAN_ANOMALY   = 332.2509

EPHEMERIS_TYPE = 0
CLASSIFICATION_TYPE = U
NORAD_CAT_ID   = 48274
ELEMENT_SET_NO = 999
REV_AT_EPOCH   = 28023
BSTAR          = .25348E-3
MEAN_MOTION_DOT = .22078E-3
MEAN_MOTION_DDOT = 0

CCSDS_OMM_VERS = 2.0
CREATION_DATE  = 
ORIGINATOR     = 

OBJECT_NAME    = CZ-2C R/B
OBJECT_ID      = 2022-058K
CENTER_NAME    = EARTH
REF_FRAME      = TEME
TIME_SYSTEM    = UTC
MEAN_ELEMENT_THEORY = SGP/SGP4

EPOCH          = 2026-03-25T18:31:59.306016
MEAN_MOTION    = 15.55377493
ECCENTRICITY   = .00415265
INCLINATION    = 50.1868
RA_OF_ASC_NODE = 235.4871
ARG_OF_PERICENTER = 269.6026
MEAN_ANOMALY   = 90.0186

EPHEMERIS_TYPE = 0
CLASSIFICATION_TYPE = U
NORAD_CAT_ID   = 52794
ELEMENT_SET_NO = 999
REV_AT_EPOCH   = 21263
BSTAR          = .52496288E-3
MEAN_MOTION_DOT = .37524E-3
MEAN_MOTION_DDOT = 0

CCSDS_OMM_VERS = 2.0
CREATION_DATE  = 
ORIGINATOR     = 

OBJECT_NAME    = CZ-2C R/B
OBJECT_ID      = 2022-132E
CENTER_NAME    = EARTH
REF_FRAME      = TEME
TIME_SYSTEM    = UTC
MEAN_ELEMENT_THEORY = SGP/SGP4

EPOCH          = 2026-03-26T11:16:30.063360
MEAN_MOTION    = 15.63410774
ECCENTRICITY   = .0018219
INCLINATION    = 97.2963
RA_OF_ASC_NODE = 89.3160
ARG_OF_PERICENTER = 36.9565
MEAN_ANOMALY   = 323.2945

EPHEMERIS_TYPE = 0
CLASSIFICATION_TYPE = U
NORAD_CAT_ID   = 54039
ELEMENT_SET_NO = 999
REV_AT_EPOCH   = 19299
BSTAR          = .49499E-3
MEAN_MOTION_DOT = .46034E-3
MEAN_MOTION_DDOT = 0

CCSDS_OMM_VERS = 2.0
CREATION_DATE  = 
ORIGINATOR     = 

OBJECT_NAME    = GSLV R/B
OBJECT_ID      = 2022-138AN
CENTER_NAME    = EARTH
REF_FRAME      = TEME
TIME_SYSTEM    = UTC
MEAN_ELEMENT_THEORY = SGP/SGP4

EPOCH          = 2026-03-26T05:36:17.406720
MEAN_MOTION    = 14.96880005
ECCENTRICITY   = .0024097
INCLINATION    = 87.3864
RA_OF_ASC_NODE = 160.8245
ARG_OF_PERICENTER = 92.1088
MEAN_ANOMALY   = 268.2903

EPHEMERIS_TYPE = 0
CLASSIFICATION_TYPE = U
NORAD_CAT_ID   = 54149
ELEMENT_SET_NO = 999
REV_AT_EPOCH   = 18640
BSTAR          = .21043E-3
MEAN_MOTION_DOT = .2455E-4
MEAN_MOTION_DDOT = 0

